{
"type": "FeatureCollection",
"name": "IMPD_metro",
"crs": { "type": "name", "properties": { "name": "urn:ogc:def:crs:OGC:1.3:CRS84" } },
"features": [
{ "type": "Feature", "properties": { "CODI_ACCÉS": 12001, "NOM_ACCÉS": "Alcolea (escala mecànica)", "NOM_ESTACIÓ": "120 PLAÇA DE SANTS (L1)", "Ascensor": false, "Escales": true, "Peu Pla": false, "GEOMETRY": "POINT (2.137076560320469 41.37545699679641)", "Type": "Metro Access", "Evaluation": "Stairs only" }, "geometry": { "type": "Point", "coordinates": [ 2.137076560320469, 41.375456996796409 ] } },
{ "type": "Feature", "properties": { "CODI_ACCÉS": 12101, "NOM_ACCÉS": "Consell de Cent / Mercat", "NOM_ESTACIÓ": "121 HOSTAFRANCS", "Ascensor": true, "Escales": false, "Peu Pla": false, "GEOMETRY": "POINT (2.1437090237347274 41.37551150423378)", "Type": "Metro Access", "Evaluation": "Elevator" }, "geometry": { "type": "Point", "coordinates": [ 2.143709023734727, 41.375511504233778 ] } },
{ "type": "Feature", "properties": { "CODI_ACCÉS": 12111, "NOM_ACCÉS": "Hostafrancs", "NOM_ESTACIÓ": "121 HOSTAFRANCS", "Ascensor": false, "Escales": true, "Peu Pla": false, "GEOMETRY": "POINT (2.144251846264405 41.3750817184101)", "Type": "Metro Access", "Evaluation": "Stairs only" }, "geometry": { "type": "Point", "coordinates": [ 2.144251846264405, 41.375081718410101 ] } },
{ "type": "Feature", "properties": { "CODI_ACCÉS": 12201, "NOM_ACCÉS": "Creu Coberta", "NOM_ESTACIÓ": "122 ESPANYA (L1)", "Ascensor": true, "Escales": false, "Peu Pla": false, "GEOMETRY": "POINT (2.1482912995412016 41.37526760303323)", "Type": "Metro Access", "Evaluation": "Elevator" }, "geometry": { "type": "Point", "coordinates": [ 2.148291299541202, 41.37526760303323 ] } },
{ "type": "Feature", "properties": { "CODI_ACCÉS": 12202, "NOM_ACCÉS": "Tarragona", "NOM_ESTACIÓ": "122 ESPANYA (L3)", "Ascensor": false, "Escales": false, "Peu Pla": true, "GEOMETRY": "POINT (2.149209902005212 41.375713915877334)", "Type": "Metro Access", "Evaluation": "Step-free access" }, "geometry": { "type": "Point", "coordinates": [ 2.149209902005212, 41.375713915877334 ] } },
{ "type": "Feature", "properties": { "CODI_ACCÉS": 12301, "NOM_ACCÉS": "Rocafort / Diputació", "NOM_ESTACIÓ": "123 ROCAFORT", "Ascensor": true, "Escales": false, "Peu Pla": false, "GEOMETRY": "POINT (2.1538290310454578 41.37899331791698)", "Type": "Metro Access", "Evaluation": "Elevator" }, "geometry": { "type": "Point", "coordinates": [ 2.153829031045458, 41.378993317916979 ] } },
{ "type": "Feature", "properties": { "CODI_ACCÉS": 12401, "NOM_ACCÉS": "Comte d'Urgell", "NOM_ESTACIÓ": "124 URGELL", "Ascensor": true, "Escales": false, "Peu Pla": false, "GEOMETRY": "POINT (2.1582278918354936 41.38201964980934)", "Type": "Metro Access", "Evaluation": "Elevator" }, "geometry": { "type": "Point", "coordinates": [ 2.158227891835494, 41.382019649809337 ] } },
{ "type": "Feature", "properties": { "CODI_ACCÉS": 12501, "NOM_ACCÉS": "Ronda Universitat", "NOM_ESTACIÓ": "125 UNIVERSITAT (L1)", "Ascensor": false, "Escales": true, "Peu Pla": false, "GEOMETRY": "POINT (2.165253177697143 41.38599247591405)", "Type": "Metro Access", "Evaluation": "Stairs only" }, "geometry": { "type": "Point", "coordinates": [ 2.165253177697143, 41.385992475914051 ] } },
{ "type": "Feature", "properties": { "CODI_ACCÉS": 12502, "NOM_ACCÉS": "Pelai", "NOM_ESTACIÓ": "125 UNIVERSITAT (L1)", "Ascensor": false, "Escales": true, "Peu Pla": false, "GEOMETRY": "POINT (2.1646574105714462 41.385735386671044)", "Type": "Metro Access", "Evaluation": "Stairs only" }, "geometry": { "type": "Point", "coordinates": [ 2.164657410571446, 41.385735386671044 ] } },
{ "type": "Feature", "properties": { "CODI_ACCÉS": 12602, "NOM_ACCÉS": "Ronda Universitat", "NOM_ESTACIÓ": "126 CATALUNYA (L1)", "Ascensor": true, "Escales": true, "Peu Pla": false, "GEOMETRY": "POINT (2.1684324482528305 41.3871659907406)", "Type": "Metro Access", "Evaluation": "Elevator" }, "geometry": { "type": "Point", "coordinates": [ 2.168432448252831, 41.387165990740598 ] } },
{ "type": "Feature", "properties": { "CODI_ACCÉS": 12611, "NOM_ACCÉS": "Passeig de Gràcia", "NOM_ESTACIÓ": "126 CATALUNYA (L1)", "Ascensor": false, "Escales": true, "Peu Pla": false, "GEOMETRY": "POINT (2.1696450016817996 41.38805712627539)", "Type": "Metro Access", "Evaluation": "Stairs only" }, "geometry": { "type": "Point", "coordinates": [ 2.1696450016818, 41.388057126275392 ] } },
{ "type": "Feature", "properties": { "CODI_ACCÉS": 12612, "NOM_ACCÉS": "Ronda Sant Pere", "NOM_ESTACIÓ": "126 CATALUNYA (L1)", "Ascensor": false, "Escales": true, "Peu Pla": false, "GEOMETRY": "POINT (2.1705687422240594 41.387791071631796)", "Type": "Metro Access", "Evaluation": "Stairs only" }, "geometry": { "type": "Point", "coordinates": [ 2.170568742224059, 41.387791071631796 ] } },
{ "type": "Feature", "properties": { "CODI_ACCÉS": 12801, "NOM_ACCÉS": "Avda. Vilanova", "NOM_ESTACIÓ": "128 ARC DE TRIOMF", "Ascensor": true, "Escales": true, "Peu Pla": false, "GEOMETRY": "POINT (2.180570656025173 41.39185329732535)", "Type": "Metro Access", "Evaluation": "Elevator" }, "geometry": { "type": "Point", "coordinates": [ 2.180570656025173, 41.391853297325348 ] } },
{ "type": "Feature", "properties": { "CODI_ACCÉS": 12811, "NOM_ACCÉS": "Nàpols", "NOM_ESTACIÓ": "128 ARC DE TRIOMF", "Ascensor": false, "Escales": true, "Peu Pla": true, "GEOMETRY": "POINT (2.181915086660581 41.39296784447241)", "Type": "Metro Access", "Evaluation": "Step-free access" }, "geometry": { "type": "Point", "coordinates": [ 2.181915086660581, 41.392967844472409 ] } },
{ "type": "Feature", "properties": { "CODI_ACCÉS": 12812, "NOM_ACCÉS": "Roger de Flor", "NOM_ESTACIÓ": "128 ARC DE TRIOMF", "Ascensor": false, "Escales": true, "Peu Pla": false, "GEOMETRY": "POINT (2.1813300100196997 41.39247743368641)", "Type": "Metro Access", "Evaluation": "Stairs only" }, "geometry": { "type": "Point", "coordinates": [ 2.1813300100197, 41.392477433686409 ] } },
{ "type": "Feature", "properties": { "CODI_ACCÉS": 12901, "NOM_ACCÉS": "L'Auditori", "NOM_ESTACIÓ": "129 MARINA", "Ascensor": true, "Escales": false, "Peu Pla": false, "GEOMETRY": "POINT (2.1866383243772467 41.39561404046055)", "Type": "Metro Access", "Evaluation": "Elevator" }, "geometry": { "type": "Point", "coordinates": [ 2.186638324377247, 41.395614040460551 ] } },
{ "type": "Feature", "properties": { "CODI_ACCÉS": 12902, "NOM_ACCÉS": "Almogàvers", "NOM_ESTACIÓ": "129 MARINA", "Ascensor": false, "Escales": true, "Peu Pla": false, "GEOMETRY": "POINT (2.187103834120818 41.39521096247457)", "Type": "Metro Access", "Evaluation": "Stairs only" }, "geometry": { "type": "Point", "coordinates": [ 2.187103834120818, 41.395210962474572 ] } },
{ "type": "Feature", "properties": { "CODI_ACCÉS": 13001, "NOM_ACCÉS": "Plaça de les Glòries Catalanes", "NOM_ESTACIÓ": "130 GLÒRIES", "Ascensor": false, "Escales": true, "Peu Pla": false, "GEOMETRY": "POINT (2.187148721883204 41.40288074122872)", "Type": "Metro Access", "Evaluation": "Stairs only" }, "geometry": { "type": "Point", "coordinates": [ 2.187148721883204, 41.402880741228721 ] } },
{ "type": "Feature", "properties": { "CODI_ACCÉS": 13002, "NOM_ACCÉS": "Badajoz", "NOM_ESTACIÓ": "130 GLÒRIES", "Ascensor": false, "Escales": true, "Peu Pla": false, "GEOMETRY": "POINT (2.1883855867971405 41.40300733777843)", "Type": "Metro Access", "Evaluation": "Stairs only" }, "geometry": { "type": "Point", "coordinates": [ 2.18838558679714, 41.403007337778433 ] } },
{ "type": "Feature", "properties": { "CODI_ACCÉS": 13011, "NOM_ACCÉS": "Avda. Meridiana", "NOM_ESTACIÓ": "130 GLÒRIES", "Ascensor": true, "Escales": true, "Peu Pla": false, "GEOMETRY": "POINT (2.1871213205903213 41.401979986538464)", "Type": "Metro Access", "Evaluation": "Elevator" }, "geometry": { "type": "Point", "coordinates": [ 2.187121320590321, 41.401979986538464 ] } },
{ "type": "Feature", "properties": { "CODI_ACCÉS": 13101, "NOM_ACCÉS": "Aragó / Meridiana", "NOM_ESTACIÓ": "131 CLOT (L1)", "Ascensor": true, "Escales": false, "Peu Pla": false, "GEOMETRY": "POINT (2.1872081499787943 41.40934812132808)", "Type": "Metro Access", "Evaluation": "Elevator" }, "geometry": { "type": "Point", "coordinates": [ 2.187208149978794, 41.40934812132808 ] } },
{ "type": "Feature", "properties": { "CODI_ACCÉS": 13201, "NOM_ACCÉS": "Navas de Tolosa", "NOM_ESTACIÓ": "132 NAVAS", "Ascensor": true, "Escales": false, "Peu Pla": false, "GEOMETRY": "POINT (2.1871417879228954 41.415511612606714)", "Type": "Metro Access", "Evaluation": "Elevator" }, "geometry": { "type": "Point", "coordinates": [ 2.187141787922895, 41.415511612606714 ] } },
{ "type": "Feature", "properties": { "CODI_ACCÉS": 13211, "NOM_ACCÉS": "Biscaia", "NOM_ESTACIÓ": "132 NAVAS", "Ascensor": false, "Escales": true, "Peu Pla": false, "GEOMETRY": "POINT (2.1871329496045457 41.416877066628814)", "Type": "Metro Access", "Evaluation": "Stairs only" }, "geometry": { "type": "Point", "coordinates": [ 2.187132949604546, 41.416877066628814 ] } },
{ "type": "Feature", "properties": { "CODI_ACCÉS": 13301, "NOM_ACCÉS": "Meridiana | Hondures", "NOM_ESTACIÓ": "133 LA SAGRERA (L1)", "Ascensor": true, "Escales": true, "Peu Pla": false, "GEOMETRY": "POINT (2.187117853085126 41.42176611115489)", "Type": "Metro Access", "Evaluation": "Elevator" }, "geometry": { "type": "Point", "coordinates": [ 2.187117853085126, 41.421766111154888 ] } },
{ "type": "Feature", "properties": { "CODI_ACCÉS": 13302, "NOM_ACCÉS": "Garcilaso", "NOM_ESTACIÓ": "133 LA SAGRERA (L1)", "Ascensor": true, "Escales": true, "Peu Pla": false, "GEOMETRY": "POINT (2.1865739201029823 41.42182682636695)", "Type": "Metro Access", "Evaluation": "Elevator" }, "geometry": { "type": "Point", "coordinates": [ 2.186573920102982, 41.421826826366953 ] } },
{ "type": "Feature", "properties": { "CODI_ACCÉS": 13303, "NOM_ACCÉS": "Hondures", "NOM_ESTACIÓ": "133 LA SAGRERA (L1)", "Ascensor": false, "Escales": false, "Peu Pla": true, "GEOMETRY": "POINT (2.187446534149989 41.42174792109557)", "Type": "Metro Access", "Evaluation": "Step-free access" }, "geometry": { "type": "Point", "coordinates": [ 2.187446534149989, 41.421747921095573 ] } },
{ "type": "Feature", "properties": { "CODI_ACCÉS": 13311, "NOM_ACCÉS": "Jardins d'Elx", "NOM_ESTACIÓ": "133 LA SAGRERA (L1)", "Ascensor": true, "Escales": true, "Peu Pla": false, "GEOMETRY": "POINT (2.1874417965337414 41.423033272163075)", "Type": "Metro Access", "Evaluation": "Elevator" }, "geometry": { "type": "Point", "coordinates": [ 2.187441796533741, 41.423033272163075 ] } },
{ "type": "Feature", "properties": { "CODI_ACCÉS": 13401, "NOM_ACCÉS": "Passeig Fabra i Puig", "NOM_ESTACIÓ": "134 FABRA I PUIG", "Ascensor": false, "Escales": true, "Peu Pla": false, "GEOMETRY": "POINT (2.18351335010188 41.4304784177903)", "Type": "Metro Access", "Evaluation": "Stairs only" }, "geometry": { "type": "Point", "coordinates": [ 2.18351335010188, 41.430478417790297 ] } },
{ "type": "Feature", "properties": { "CODI_ACCÉS": 13404, "NOM_ACCÉS": "Renfe", "NOM_ESTACIÓ": "134 FABRA I PUIG", "Ascensor": false, "Escales": true, "Peu Pla": false, "GEOMETRY": "POINT (2.1833398667251367 41.43082156962489)", "Type": "Metro Access", "Evaluation": "Stairs only" }, "geometry": { "type": "Point", "coordinates": [ 2.183339866725137, 41.430821569624889 ] } },
{ "type": "Feature", "properties": { "CODI_ACCÉS": 13411, "NOM_ACCÉS": "Concepción Arenal", "NOM_ESTACIÓ": "134 FABRA I PUIG", "Ascensor": true, "Escales": true, "Peu Pla": false, "GEOMETRY": "POINT (2.184201299624314 41.42896462726837)", "Type": "Metro Access", "Evaluation": "Elevator" }, "geometry": { "type": "Point", "coordinates": [ 2.184201299624314, 41.428964627268371 ] } },
{ "type": "Feature", "properties": { "CODI_ACCÉS": 13501, "NOM_ACCÉS": "Plaça d'Orfila", "NOM_ESTACIÓ": "135 SANT ANDREU", "Ascensor": true, "Escales": false, "Peu Pla": false, "GEOMETRY": "POINT (2.190873765898556 41.43588672605516)", "Type": "Metro Access", "Evaluation": "Elevator" }, "geometry": { "type": "Point", "coordinates": [ 2.190873765898556, 41.435886726055159 ] } },
{ "type": "Feature", "properties": { "CODI_ACCÉS": 13602, "NOM_ACCÉS": "Palomar / costat mar", "NOM_ESTACIÓ": "136 TORRAS I BAGES", "Ascensor": true, "Escales": false, "Peu Pla": false, "GEOMETRY": "POINT (2.1909293023009755 41.4424072302466)", "Type": "Metro Access", "Evaluation": "Elevator" }, "geometry": { "type": "Point", "coordinates": [ 2.190929302300975, 41.442407230246602 ] } },
{ "type": "Feature", "properties": { "CODI_ACCÉS": 13702, "NOM_ACCÉS": "Parc de la Trinitat", "NOM_ESTACIÓ": "137 TRINITAT VELLA", "Ascensor": true, "Escales": false, "Peu Pla": true, "GEOMETRY": "POINT (2.194062647218165 41.44893359585285)", "Type": "Metro Access", "Evaluation": "Elevator" }, "geometry": { "type": "Point", "coordinates": [ 2.194062647218165, 41.44893359585285 ] } },
{ "type": "Feature", "properties": { "CODI_ACCÉS": 13801, "NOM_ACCÉS": "Riu Besòs", "NOM_ESTACIÓ": "138 BARÓ DE VIVER", "Ascensor": true, "Escales": false, "Peu Pla": false, "GEOMETRY": "POINT (2.1998241820720037 41.44973950590627)", "Type": "Metro Access", "Evaluation": "Elevator" }, "geometry": { "type": "Point", "coordinates": [ 2.199824182072004, 41.449739505906273 ] } },
{ "type": "Feature", "properties": { "CODI_ACCÉS": 21002, "NOM_ACCÉS": "Avinguda Paral·lel", "NOM_ESTACIÓ": "210 PARAL·LEL (L2)", "Ascensor": true, "Escales": false, "Peu Pla": false, "GEOMETRY": "POINT (2.1702476168469103 41.37481578673022)", "Type": "Metro Access", "Evaluation": "Elevator" }, "geometry": { "type": "Point", "coordinates": [ 2.17024761684691, 41.374815786730217 ] } },
{ "type": "Feature", "properties": { "CODI_ACCÉS": 21101, "NOM_ACCÉS": "Villarroel", "NOM_ESTACIÓ": "211 SANT ANTONI", "Ascensor": true, "Escales": true, "Peu Pla": false, "GEOMETRY": "POINT (2.1632448846404166 41.380656118874064)", "Type": "Metro Access", "Evaluation": "Elevator" }, "geometry": { "type": "Point", "coordinates": [ 2.163244884640417, 41.380656118874064 ] } },
{ "type": "Feature", "properties": { "CODI_ACCÉS": 21112, "NOM_ACCÉS": "Urgell", "NOM_ESTACIÓ": "211 SANT ANTONI", "Ascensor": false, "Escales": true, "Peu Pla": false, "GEOMETRY": "POINT (2.163017438116344 41.37898743307027)", "Type": "Metro Access", "Evaluation": "Stairs only" }, "geometry": { "type": "Point", "coordinates": [ 2.163017438116344, 41.378987433070272 ] } },
{ "type": "Feature", "properties": { "CODI_ACCÉS": 21201, "NOM_ACCÉS": "Plaça Universitat", "NOM_ESTACIÓ": "125 UNIVERSITAT (L1 i L2)", "Ascensor": true, "Escales": true, "Peu Pla": false, "GEOMETRY": "POINT (2.1637026922086635 41.385403141515845)", "Type": "Metro Access", "Evaluation": "Elevator" }, "geometry": { "type": "Point", "coordinates": [ 2.163702692208664, 41.385403141515845 ] } },
{ "type": "Feature", "properties": { "CODI_ACCÉS": 21211, "NOM_ACCÉS": "Ronda Sant Antoni", "NOM_ESTACIÓ": "125 UNIVERSITAT (L1 i L2)", "Ascensor": false, "Escales": true, "Peu Pla": false, "GEOMETRY": "POINT (2.1637963378162297 41.38477460996994)", "Type": "Metro Access", "Evaluation": "Stairs only" }, "geometry": { "type": "Point", "coordinates": [ 2.16379633781623, 41.384774609969938 ] } },
{ "type": "Feature", "properties": { "CODI_ACCÉS": 21301, "NOM_ACCÉS": "Rbla. Catalunya", "NOM_ESTACIÓ": "213 PASSEIG DE GRÀCIA (L2)", "Ascensor": true, "Escales": true, "Peu Pla": false, "GEOMETRY": "POINT (2.167613968626813 41.3889235878422)", "Type": "Metro Access", "Evaluation": "Elevator" }, "geometry": { "type": "Point", "coordinates": [ 2.167613968626813, 41.3889235878422 ] } },
{ "type": "Feature", "properties": { "CODI_ACCÉS": 21311, "NOM_ACCÉS": "Pau Claris", "NOM_ESTACIÓ": "213 PASSEIG DE GRÀCIA (L2)", "Ascensor": false, "Escales": true, "Peu Pla": false, "GEOMETRY": "POINT (2.168787438856731 41.38967781463345)", "Type": "Metro Access", "Evaluation": "Stairs only" }, "geometry": { "type": "Point", "coordinates": [ 2.168787438856731, 41.389677814633451 ] } },
{ "type": "Feature", "properties": { "CODI_ACCÉS": 21402, "NOM_ACCÉS": "Casp / Passeig de Sant Joan", "NOM_ESTACIÓ": "214 TETUAN", "Ascensor": true, "Escales": false, "Peu Pla": false, "GEOMETRY": "POINT (2.1754294270341212 41.39431845374224)", "Type": "Metro Access", "Evaluation": "Elevator" }, "geometry": { "type": "Point", "coordinates": [ 2.175429427034121, 41.394318453742237 ] } },
{ "type": "Feature", "properties": { "CODI_ACCÉS": 21501, "NOM_ACCÉS": "Marina", "NOM_ESTACIÓ": "215 MONUMENTAL", "Ascensor": true, "Escales": true, "Peu Pla": false, "GEOMETRY": "POINT (2.1794426659464428 41.400346419666555)", "Type": "Metro Access", "Evaluation": "Elevator" }, "geometry": { "type": "Point", "coordinates": [ 2.179442665946443, 41.400346419666555 ] } },
{ "type": "Feature", "properties": { "CODI_ACCÉS": 21502, "NOM_ACCÉS": "Marina / Plaça de Toros", "NOM_ESTACIÓ": "215 MONUMENTAL", "Ascensor": false, "Escales": true, "Peu Pla": false, "GEOMETRY": "POINT (2.1796250007835867 41.400487641404595)", "Type": "Metro Access", "Evaluation": "Stairs only" }, "geometry": { "type": "Point", "coordinates": [ 2.179625000783587, 41.400487641404595 ] } },
{ "type": "Feature", "properties": { "CODI_ACCÉS": 21601, "NOM_ACCÉS": "Mallorca - Marina", "NOM_ESTACIÓ": "216 SAGRADA FAMÍLIA (L2)", "Ascensor": true, "Escales": true, "Peu Pla": false, "GEOMETRY": "POINT (2.1757445241234667 41.40387144931647)", "Type": "Metro Access", "Evaluation": "Elevator" }, "geometry": { "type": "Point", "coordinates": [ 2.175744524123467, 41.403871449316469 ] } },
{ "type": "Feature", "properties": { "CODI_ACCÉS": 21701, "NOM_ACCÉS": "València / Mallorca", "NOM_ESTACIÓ": "217 ENCANTS", "Ascensor": false, "Escales": true, "Peu Pla": false, "GEOMETRY": "POINT (2.182130972160925 41.4070649275865)", "Type": "Metro Access", "Evaluation": "Stairs only" }, "geometry": { "type": "Point", "coordinates": [ 2.182130972160925, 41.407064927586497 ] } },
{ "type": "Feature", "properties": { "CODI_ACCÉS": 21702, "NOM_ACCÉS": "València / Aragó", "NOM_ESTACIÓ": "217 ENCANTS", "Ascensor": true, "Escales": true, "Peu Pla": false, "GEOMETRY": "POINT (2.1824666169343687 41.40682787383308)", "Type": "Metro Access", "Evaluation": "Elevator" }, "geometry": { "type": "Point", "coordinates": [ 2.182466616934369, 41.40682787383308 ] } },
{ "type": "Feature", "properties": { "CODI_ACCÉS": 21801, "NOM_ACCÉS": "Sibelius", "NOM_ESTACIÓ": "218 CLOT (L2)", "Ascensor": true, "Escales": true, "Peu Pla": false, "GEOMETRY": "POINT (2.1861690404598 41.410268040224246)", "Type": "Metro Access", "Evaluation": "Elevator" }, "geometry": { "type": "Point", "coordinates": [ 2.1861690404598, 41.410268040224246 ] } },
{ "type": "Feature", "properties": { "CODI_ACCÉS": 21901, "NOM_ACCÉS": "Fluvià", "NOM_ESTACIÓ": "219 BAC DE RODA", "Ascensor": true, "Escales": true, "Peu Pla": false, "GEOMETRY": "POINT (2.19625432577836 41.415716692237105)", "Type": "Metro Access", "Evaluation": "Elevator" }, "geometry": { "type": "Point", "coordinates": [ 2.19625432577836, 41.415716692237105 ] } },
{ "type": "Feature", "properties": { "CODI_ACCÉS": 21911, "NOM_ACCÉS": "Bac de Roda", "NOM_ESTACIÓ": "219 BAC DE RODA", "Ascensor": false, "Escales": true, "Peu Pla": false, "GEOMETRY": "POINT (2.19507920707105 41.41484254892016)", "Type": "Metro Access", "Evaluation": "Stairs only" }, "geometry": { "type": "Point", "coordinates": [ 2.19507920707105, 41.414842548920163 ] } },
{ "type": "Feature", "properties": { "CODI_ACCÉS": 22001, "NOM_ACCÉS": "Agricultura", "NOM_ESTACIÓ": "220 SANT MARTÍ", "Ascensor": true, "Escales": true, "Peu Pla": false, "GEOMETRY": "POINT (2.199980917665574 41.41851943580219)", "Type": "Metro Access", "Evaluation": "Elevator" }, "geometry": { "type": "Point", "coordinates": [ 2.199980917665574, 41.418519435802189 ] } },
{ "type": "Feature", "properties": { "CODI_ACCÉS": 22011, "NOM_ACCÉS": "Cantàbria", "NOM_ESTACIÓ": "220 SANT MARTÍ", "Ascensor": false, "Escales": true, "Peu Pla": false, "GEOMETRY": "POINT (2.201155132701335 41.419396999382336)", "Type": "Metro Access", "Evaluation": "Stairs only" }, "geometry": { "type": "Point", "coordinates": [ 2.201155132701335, 41.419396999382336 ] } },
{ "type": "Feature", "properties": { "CODI_ACCÉS": 22201, "NOM_ACCÉS": "Santander", "NOM_ESTACIÓ": "222 VERNEDA", "Ascensor": true, "Escales": false, "Peu Pla": false, "GEOMETRY": "POINT (2.209686267795912 41.43017922494413)", "Type": "Metro Access", "Evaluation": "Elevator" }, "geometry": { "type": "Point", "coordinates": [ 2.209686267795912, 41.430179224944133 ] } },
{ "type": "Feature", "properties": { "CODI_ACCÉS": 31501, "NOM_ACCÉS": "Facultat de Ciències", "NOM_ESTACIÓ": "315 PALAU REIAL", "Ascensor": true, "Escales": true, "Peu Pla": false, "GEOMETRY": "POINT (2.1180811742275276 41.38559335093526)", "Type": "Metro Access", "Evaluation": "Elevator" }, "geometry": { "type": "Point", "coordinates": [ 2.118081174227528, 41.38559335093526 ] } },
{ "type": "Feature", "properties": { "CODI_ACCÉS": 31603, "NOM_ACCÉS": "Gran Via Carles III", "NOM_ESTACIÓ": "316 MARIA CRISTINA", "Ascensor": true, "Escales": true, "Peu Pla": false, "GEOMETRY": "POINT (2.1267962626212245 41.38778680149168)", "Type": "Metro Access", "Evaluation": "Elevator" }, "geometry": { "type": "Point", "coordinates": [ 2.126796262621224, 41.387786801491679 ] } },
{ "type": "Feature", "properties": { "CODI_ACCÉS": 31701, "NOM_ACCÉS": "Travessera de les Corts", "NOM_ESTACIÓ": "317 LES CORTS", "Ascensor": true, "Escales": false, "Peu Pla": false, "GEOMETRY": "POINT (2.1306163098020594 41.38389819447068)", "Type": "Metro Access", "Evaluation": "Elevator" }, "geometry": { "type": "Point", "coordinates": [ 2.130616309802059, 41.383898194470682 ] } },
{ "type": "Feature", "properties": { "CODI_ACCÉS": 31801, "NOM_ACCÉS": "Plaça del Centre (mar)", "NOM_ESTACIÓ": "318 PLAÇA DEL CENTRE", "Ascensor": true, "Escales": false, "Peu Pla": false, "GEOMETRY": "POINT (2.1359254828961993 41.38166984558516)", "Type": "Metro Access", "Evaluation": "Elevator" }, "geometry": { "type": "Point", "coordinates": [ 2.135925482896199, 41.381669845585158 ] } },
{ "type": "Feature", "properties": { "CODI_ACCÉS": 31901, "NOM_ACCÉS": "Pl. Països Catalans / Numància / Ambulatori", "NOM_ESTACIÓ": "319 SANTS - ESTACIÓ (L3 i L5)", "Ascensor": true, "Escales": false, "Peu Pla": false, "GEOMETRY": "POINT (2.1416637385998203 41.380945544078244)", "Type": "Metro Access", "Evaluation": "Elevator" }, "geometry": { "type": "Point", "coordinates": [ 2.14166373859982, 41.380945544078244 ] } },
{ "type": "Feature", "properties": { "CODI_ACCÉS": 31912, "NOM_ACCÉS": "Dolors Batlle i Sunyer", "NOM_ESTACIÓ": "319 SANTS - ESTACIÓ (L3 i L5)", "Ascensor": false, "Escales": true, "Peu Pla": false, "GEOMETRY": "POINT (2.1399637818783854 41.38207238425652)", "Type": "Metro Access", "Evaluation": "Stairs only" }, "geometry": { "type": "Point", "coordinates": [ 2.139963781878385, 41.382072384256517 ] } },
{ "type": "Feature", "properties": { "CODI_ACCÉS": 32004, "NOM_ACCÉS": "Aragó", "NOM_ESTACIÓ": "320 TARRAGONA", "Ascensor": true, "Escales": false, "Peu Pla": false, "GEOMETRY": "POINT (2.1460840976162405 41.37824459551975)", "Type": "Metro Access", "Evaluation": "Elevator" }, "geometry": { "type": "Point", "coordinates": [ 2.146084097616241, 41.378244595519753 ] } },
{ "type": "Feature", "properties": { "CODI_ACCÉS": 32101, "NOM_ACCÉS": "Avinguda Paral·lel", "NOM_ESTACIÓ": "122 ESPANYA (L3)", "Ascensor": true, "Escales": false, "Peu Pla": false, "GEOMETRY": "POINT (2.1501643181317034 41.375239186052276)", "Type": "Metro Access", "Evaluation": "Elevator" }, "geometry": { "type": "Point", "coordinates": [ 2.150164318131703, 41.375239186052276 ] } },
{ "type": "Feature", "properties": { "CODI_ACCÉS": 32201, "NOM_ACCÉS": "Manso", "NOM_ESTACIÓ": "322 POBLE SEC", "Ascensor": true, "Escales": false, "Peu Pla": false, "GEOMETRY": "POINT (2.1589105615673567 41.375148900053986)", "Type": "Metro Access", "Evaluation": "Elevator" }, "geometry": { "type": "Point", "coordinates": [ 2.158910561567357, 41.375148900053986 ] } },
{ "type": "Feature", "properties": { "CODI_ACCÉS": 32401, "NOM_ACCÉS": "La Rambla", "NOM_ESTACIÓ": "324 DRASSANES", "Ascensor": true, "Escales": false, "Peu Pla": false, "GEOMETRY": "POINT (2.1765218563885598 41.37694607663264)", "Type": "Metro Access", "Evaluation": "Elevator" }, "geometry": { "type": "Point", "coordinates": [ 2.17652185638856, 41.376946076632642 ] } },
{ "type": "Feature", "properties": { "CODI_ACCÉS": 32411, "NOM_ACCÉS": "Drassanes", "NOM_ESTACIÓ": "324 DRASSANES", "Ascensor": true, "Escales": false, "Peu Pla": false, "GEOMETRY": "POINT (2.1755586309970667 41.376587278422946)", "Type": "Metro Access", "Evaluation": "Elevator" }, "geometry": { "type": "Point", "coordinates": [ 2.175558630997067, 41.376587278422946 ] } },
{ "type": "Feature", "properties": { "CODI_ACCÉS": 32521, "NOM_ACCÉS": "La Rambla / Teatre Liceu", "NOM_ESTACIÓ": "325 LICEU", "Ascensor": true, "Escales": false, "Peu Pla": false, "GEOMETRY": "POINT (2.1735592931120378 41.380925407683605)", "Type": "Metro Access", "Evaluation": "Elevator" }, "geometry": { "type": "Point", "coordinates": [ 2.173559293112038, 41.380925407683605 ] } },
{ "type": "Feature", "properties": { "CODI_ACCÉS": 32531, "NOM_ACCÉS": "La Rambla / Teatre Liceu", "NOM_ESTACIÓ": "325 LICEU", "Ascensor": true, "Escales": false, "Peu Pla": false, "GEOMETRY": "POINT (2.1734448589745035 41.380864515158784)", "Type": "Metro Access", "Evaluation": "Elevator" }, "geometry": { "type": "Point", "coordinates": [ 2.173444858974503, 41.380864515158784 ] } },
{ "type": "Feature", "properties": { "CODI_ACCÉS": 32601, "NOM_ACCÉS": "La Rambla", "NOM_ESTACIÓ": "326 CATALUNYA (L3)", "Ascensor": false, "Escales": true, "Peu Pla": false, "GEOMETRY": "POINT (2.1701200409093806 41.38540092623957)", "Type": "Metro Access", "Evaluation": "Stairs only" }, "geometry": { "type": "Point", "coordinates": [ 2.170120040909381, 41.385400926239569 ] } },
{ "type": "Feature", "properties": { "CODI_ACCÉS": 32603, "NOM_ACCÉS": "Pelai", "NOM_ESTACIÓ": "326 CATALUNYA (L3)", "Ascensor": true, "Escales": true, "Peu Pla": false, "GEOMETRY": "POINT (2.16953090480301 41.38546405543329)", "Type": "Metro Access", "Evaluation": "Elevator" }, "geometry": { "type": "Point", "coordinates": [ 2.16953090480301, 41.385464055433289 ] } },
{ "type": "Feature", "properties": { "CODI_ACCÉS": 32604, "NOM_ACCÉS": "Bergara", "NOM_ESTACIÓ": "326 CATALUNYA (L3)", "Ascensor": false, "Escales": true, "Peu Pla": false, "GEOMETRY": "POINT (2.1696418084504634 41.38575596036264)", "Type": "Metro Access", "Evaluation": "Stairs only" }, "geometry": { "type": "Point", "coordinates": [ 2.169641808450463, 41.385755960362637 ] } },
{ "type": "Feature", "properties": { "CODI_ACCÉS": 32701, "NOM_ACCÉS": "Aragó / Pau Claris", "NOM_ESTACIÓ": "327 PASSEIG DE GRÀCIA (L3)", "Ascensor": true, "Escales": true, "Peu Pla": false, "GEOMETRY": "POINT (2.165424467978146 41.39199999384237)", "Type": "Metro Access", "Evaluation": "Elevator" }, "geometry": { "type": "Point", "coordinates": [ 2.165424467978146, 41.391999993842369 ] } },
{ "type": "Feature", "properties": { "CODI_ACCÉS": 32711, "NOM_ACCÉS": "Consell de Cent", "NOM_ESTACIÓ": "327 PASSEIG DE GRÀCIA (L3)", "Ascensor": false, "Escales": true, "Peu Pla": false, "GEOMETRY": "POINT (2.165492580469699 41.39152884500981)", "Type": "Metro Access", "Evaluation": "Stairs only" }, "geometry": { "type": "Point", "coordinates": [ 2.165492580469699, 41.391528845009809 ] } },
{ "type": "Feature", "properties": { "CODI_ACCÉS": 32801, "NOM_ACCÉS": "Pg. de Gràcia / Rambla Catalunya", "NOM_ESTACIÓ": "328 DIAGONAL (L3)", "Ascensor": true, "Escales": false, "Peu Pla": false, "GEOMETRY": "POINT (2.160637849458869 41.39543592300068)", "Type": "Metro Access", "Evaluation": "Elevator" }, "geometry": { "type": "Point", "coordinates": [ 2.160637849458869, 41.395435923000683 ] } },
{ "type": "Feature", "properties": { "CODI_ACCÉS": 32803, "NOM_ACCÉS": "Pg. de Gràcia (escala mecànica)", "NOM_ESTACIÓ": "328 DIAGONAL (L3)", "Ascensor": false, "Escales": true, "Peu Pla": false, "GEOMETRY": "POINT (2.160571363558969 41.39535970323131)", "Type": "Metro Access", "Evaluation": "Stairs only" }, "geometry": { "type": "Point", "coordinates": [ 2.160571363558969, 41.395359703231307 ] } },
{ "type": "Feature", "properties": { "CODI_ACCÉS": 32901, "NOM_ACCÉS": "Gran de Gràcia / Astúries", "NOM_ESTACIÓ": "329 FONTANA", "Ascensor": true, "Escales": false, "Peu Pla": true, "GEOMETRY": "POINT (2.152678107276927 41.40258457283935)", "Type": "Metro Access", "Evaluation": "Elevator" }, "geometry": { "type": "Point", "coordinates": [ 2.152678107276927, 41.402584572839352 ] } },
{ "type": "Feature", "properties": { "CODI_ACCÉS": 33011, "NOM_ACCÉS": "Plaça Lesseps", "NOM_ESTACIÓ": "330 LESSEPS", "Ascensor": true, "Escales": true, "Peu Pla": false, "GEOMETRY": "POINT (2.1502205519817297 41.40667385083013)", "Type": "Metro Access", "Evaluation": "Elevator" }, "geometry": { "type": "Point", "coordinates": [ 2.15022055198173, 41.406673850830131 ] } },
{ "type": "Feature", "properties": { "CODI_ACCÉS": 33101, "NOM_ACCÉS": "Avinguda República Argentina", "NOM_ESTACIÓ": "331 VALLCARCA", "Ascensor": true, "Escales": false, "Peu Pla": false, "GEOMETRY": "POINT (2.1450426298249528 41.411410197592765)", "Type": "Metro Access", "Evaluation": "Elevator" }, "geometry": { "type": "Point", "coordinates": [ 2.145042629824953, 41.411410197592765 ] } },
{ "type": "Feature", "properties": { "CODI_ACCÉS": 33202, "NOM_ACCÉS": "Anna Piferrer", "NOM_ESTACIÓ": "332 PENITENTS", "Ascensor": true, "Escales": false, "Peu Pla": false, "GEOMETRY": "POINT (2.1409546293562167 41.4173874031846)", "Type": "Metro Access", "Evaluation": "Elevator" }, "geometry": { "type": "Point", "coordinates": [ 2.140954629356217, 41.417387403184598 ] } },
{ "type": "Feature", "properties": { "CODI_ACCÉS": 33301, "NOM_ACCÉS": "Mercat de Vall d'Hebron", "NOM_ESTACIÓ": "333 VALL D'HEBRON (L3)", "Ascensor": true, "Escales": false, "Peu Pla": true, "GEOMETRY": "POINT (2.1429640450408893 41.424867681813545)", "Type": "Metro Access", "Evaluation": "Elevator" }, "geometry": { "type": "Point", "coordinates": [ 2.142964045040889, 41.424867681813545 ] } },
{ "type": "Feature", "properties": { "CODI_ACCÉS": 33402, "NOM_ACCÉS": "Residència Sanitària / Llars Mundet", "NOM_ESTACIÓ": "334 MONTBAU", "Ascensor": true, "Escales": true, "Peu Pla": false, "GEOMETRY": "POINT (2.1445523923106977 41.43041822207714)", "Type": "Metro Access", "Evaluation": "Elevator" }, "geometry": { "type": "Point", "coordinates": [ 2.144552392310698, 41.430418222077137 ] } },
{ "type": "Feature", "properties": { "CODI_ACCÉS": 33403, "NOM_ACCÉS": "Palau  Olímpic Vall d'Hebron", "NOM_ESTACIÓ": "334 MONTBAU", "Ascensor": false, "Escales": false, "Peu Pla": true, "GEOMETRY": "POINT (2.1454845839158647 41.430503617511576)", "Type": "Metro Access", "Evaluation": "Step-free access" }, "geometry": { "type": "Point", "coordinates": [ 2.145484583915865, 41.430503617511576 ] } },
{ "type": "Feature", "properties": { "CODI_ACCÉS": 33501, "NOM_ACCÉS": "Can Marcet", "NOM_ESTACIÓ": "335 MUNDET", "Ascensor": false, "Escales": false, "Peu Pla": true, "GEOMETRY": "POINT (2.1480892234435918 41.43495279987751)", "Type": "Metro Access", "Evaluation": "Step-free access" }, "geometry": { "type": "Point", "coordinates": [ 2.148089223443592, 41.434952799877507 ] } },
{ "type": "Feature", "properties": { "CODI_ACCÉS": 33502, "NOM_ACCÉS": "Salesians", "NOM_ESTACIÓ": "335 MUNDET", "Ascensor": false, "Escales": false, "Peu Pla": true, "GEOMETRY": "POINT (2.1484250021996574 41.435343747976944)", "Type": "Metro Access", "Evaluation": "Step-free access" }, "geometry": { "type": "Point", "coordinates": [ 2.148425002199657, 41.435343747976944 ] } },
{ "type": "Feature", "properties": { "CODI_ACCÉS": 33503, "NOM_ACCÉS": "Passeig Vall d'Hebron", "NOM_ESTACIÓ": "335 MUNDET", "Ascensor": true, "Escales": false, "Peu Pla": false, "GEOMETRY": "POINT (2.1472279054339625 41.43553737456102)", "Type": "Metro Access", "Evaluation": "Elevator" }, "geometry": { "type": "Point", "coordinates": [ 2.147227905433962, 41.435537374561022 ] } },
{ "type": "Feature", "properties": { "CODI_ACCÉS": 33601, "NOM_ACCÉS": "Passeig Valldaura", "NOM_ESTACIÓ": "336 VALLDAURA", "Ascensor": true, "Escales": true, "Peu Pla": false, "GEOMETRY": "POINT (2.156426119299251 41.43762092298766)", "Type": "Metro Access", "Evaluation": "Elevator" }, "geometry": { "type": "Point", "coordinates": [ 2.156426119299251, 41.437620922987662 ] } },
{ "type": "Feature", "properties": { "CODI_ACCÉS": 33701, "NOM_ACCÉS": "Via Favència", "NOM_ESTACIÓ": "337 CANYELLES", "Ascensor": true, "Escales": true, "Peu Pla": false, "GEOMETRY": "POINT (2.166593311352566 41.44193270077403)", "Type": "Metro Access", "Evaluation": "Elevator" }, "geometry": { "type": "Point", "coordinates": [ 2.166593311352566, 41.441932700774032 ] } },
{ "type": "Feature", "properties": { "CODI_ACCÉS": 33711, "NOM_ACCÉS": "García Lorca", "NOM_ESTACIÓ": "337 CANYELLES", "Ascensor": false, "Escales": true, "Peu Pla": false, "GEOMETRY": "POINT (2.1651883230251405 41.441694633488886)", "Type": "Metro Access", "Evaluation": "Stairs only" }, "geometry": { "type": "Point", "coordinates": [ 2.165188323025141, 41.441694633488886 ] } },
{ "type": "Feature", "properties": { "CODI_ACCÉS": 33801, "NOM_ACCÉS": "Vidal i Guasch", "NOM_ESTACIÓ": "338 ROQUETES", "Ascensor": false, "Escales": false, "Peu Pla": true, "GEOMETRY": "POINT (2.1770662586806546 41.44809123519064)", "Type": "Metro Access", "Evaluation": "Step-free access" }, "geometry": { "type": "Point", "coordinates": [ 2.177066258680655, 41.448091235190638 ] } },
{ "type": "Feature", "properties": { "CODI_ACCÉS": 33901, "NOM_ACCÉS": "Palamós", "NOM_ESTACIÓ": "339 TRINITAT NOVA (L3)", "Ascensor": false, "Escales": false, "Peu Pla": true, "GEOMETRY": "POINT (2.1843473021666466 41.44942083503193)", "Type": "Metro Access", "Evaluation": "Step-free access" }, "geometry": { "type": "Point", "coordinates": [ 2.184347302166647, 41.44942083503193 ] } },
{ "type": "Feature", "properties": { "CODI_ACCÉS": 41301, "NOM_ACCÉS": "Rambla Guipúscoa / Ca n'Oliva", "NOM_ESTACIÓ": "221 LA PAU (L2)", "Ascensor": true, "Escales": true, "Peu Pla": false, "GEOMETRY": "POINT (2.206081807312939 41.423437655063076)", "Type": "Metro Access", "Evaluation": "Elevator" }, "geometry": { "type": "Point", "coordinates": [ 2.206081807312939, 41.423437655063076 ] } },
{ "type": "Feature", "properties": { "CODI_ACCÉS": 41402, "NOM_ACCÉS": "Tram Besòs", "NOM_ESTACIÓ": "414 BESÒS", "Ascensor": true, "Escales": false, "Peu Pla": false, "GEOMETRY": "POINT (2.2098483543534213 41.42026437685945)", "Type": "Metro Access", "Evaluation": "Elevator" }, "geometry": { "type": "Point", "coordinates": [ 2.209848354353421, 41.42026437685945 ] } },
{ "type": "Feature", "properties": { "CODI_ACCÉS": 41501, "NOM_ACCÉS": "Jaume Fabre", "NOM_ESTACIÓ": "415 BESÒS MAR", "Ascensor": true, "Escales": true, "Peu Pla": false, "GEOMETRY": "POINT (2.2166777693806643 41.414530716623666)", "Type": "Metro Access", "Evaluation": "Elevator" }, "geometry": { "type": "Point", "coordinates": [ 2.216677769380664, 41.414530716623666 ] } },
{ "type": "Feature", "properties": { "CODI_ACCÉS": 41511, "NOM_ACCÉS": "Ferrer Bassa", "NOM_ESTACIÓ": "415 BESÒS MAR", "Ascensor": false, "Escales": true, "Peu Pla": false, "GEOMETRY": "POINT (2.21541421701844 41.41568433295783)", "Type": "Metro Access", "Evaluation": "Stairs only" }, "geometry": { "type": "Point", "coordinates": [ 2.21541421701844, 41.415684332957831 ] } },
{ "type": "Feature", "properties": { "CODI_ACCÉS": 41601, "NOM_ACCÉS": "Rambla de Prim", "NOM_ESTACIÓ": "416 MARESME/FÒRUM", "Ascensor": true, "Escales": true, "Peu Pla": false, "GEOMETRY": "POINT (2.2175767847471763 41.41220882345698)", "Type": "Metro Access", "Evaluation": "Elevator" }, "geometry": { "type": "Point", "coordinates": [ 2.217576784747176, 41.412208823456979 ] } },
{ "type": "Feature", "properties": { "CODI_ACCÉS": 41611, "NOM_ACCÉS": "Avinguda Diagonal", "NOM_ESTACIÓ": "416 MARESME/FÒRUM", "Ascensor": false, "Escales": true, "Peu Pla": false, "GEOMETRY": "POINT (2.2160630670103947 41.411732588322984)", "Type": "Metro Access", "Evaluation": "Stairs only" }, "geometry": { "type": "Point", "coordinates": [ 2.216063067010395, 41.411732588322984 ] } },
{ "type": "Feature", "properties": { "CODI_ACCÉS": 41711, "NOM_ACCÉS": "Provençals", "NOM_ESTACIÓ": "417 SELVA DE MAR", "Ascensor": true, "Escales": true, "Peu Pla": false, "GEOMETRY": "POINT (2.2083583462233545 41.40777282064736)", "Type": "Metro Access", "Evaluation": "Elevator" }, "geometry": { "type": "Point", "coordinates": [ 2.208358346223354, 41.407772820647359 ] } },
{ "type": "Feature", "properties": { "CODI_ACCÉS": 41801, "NOM_ACCÉS": "Pujades / Bilbao", "NOM_ESTACIÓ": "418 POBLENOU", "Ascensor": true, "Escales": false, "Peu Pla": false, "GEOMETRY": "POINT (2.202940589771111 41.40351070286831)", "Type": "Metro Access", "Evaluation": "Elevator" }, "geometry": { "type": "Point", "coordinates": [ 2.202940589771111, 41.40351070286831 ] } },
{ "type": "Feature", "properties": { "CODI_ACCÉS": 41901, "NOM_ACCÉS": "Pujades / Ciutat de Granada", "NOM_ESTACIÓ": "419 LLACUNA", "Ascensor": true, "Escales": false, "Peu Pla": false, "GEOMETRY": "POINT (2.197267337323021 41.39920826558605)", "Type": "Metro Access", "Evaluation": "Elevator" }, "geometry": { "type": "Point", "coordinates": [ 2.197267337323021, 41.399208265586047 ] } },
{ "type": "Feature", "properties": { "CODI_ACCÉS": 42011, "NOM_ACCÉS": "Pujades", "NOM_ESTACIÓ": "420 BOGATELL", "Ascensor": true, "Escales": true, "Peu Pla": false, "GEOMETRY": "POINT (2.1926279946926095 41.39548720974127)", "Type": "Metro Access", "Evaluation": "Elevator" }, "geometry": { "type": "Point", "coordinates": [ 2.192627994692609, 41.395487209741269 ] } },
{ "type": "Feature", "properties": { "CODI_ACCÉS": 42101, "NOM_ACCÉS": "Avinguda Icària", "NOM_ESTACIÓ": "421 CIUTADELLA", "Ascensor": false, "Escales": true, "Peu Pla": false, "GEOMETRY": "POINT (2.1934139603588205 41.387903375455274)", "Type": "Metro Access", "Evaluation": "Stairs only" }, "geometry": { "type": "Point", "coordinates": [ 2.193413960358821, 41.387903375455274 ] } },
{ "type": "Feature", "properties": { "CODI_ACCÉS": 42102, "NOM_ACCÉS": "Zoo", "NOM_ESTACIÓ": "421 CIUTADELLA", "Ascensor": false, "Escales": true, "Peu Pla": false, "GEOMETRY": "POINT (2.193053918835433 41.38815523473655)", "Type": "Metro Access", "Evaluation": "Stairs only" }, "geometry": { "type": "Point", "coordinates": [ 2.193053918835433, 41.388155234736551 ] } },
{ "type": "Feature", "properties": { "CODI_ACCÉS": 42201, "NOM_ACCÉS": "Plaça Pau Vila", "NOM_ESTACIÓ": "422 BARCELONETA", "Ascensor": true, "Escales": false, "Peu Pla": false, "GEOMETRY": "POINT (2.1858192894438697 41.38236821843024)", "Type": "Metro Access", "Evaluation": "Elevator" }, "geometry": { "type": "Point", "coordinates": [ 2.18581928944387, 41.382368218430237 ] } },
{ "type": "Feature", "properties": { "CODI_ACCÉS": 42301, "NOM_ACCÉS": "Plaça de l'Àngel", "NOM_ESTACIÓ": "423 JAUME I", "Ascensor": true, "Escales": false, "Peu Pla": false, "GEOMETRY": "POINT (2.1784429898771593 41.38382347679052)", "Type": "Metro Access", "Evaluation": "Elevator" }, "geometry": { "type": "Point", "coordinates": [ 2.178442989877159, 41.383823476790518 ] } },
{ "type": "Feature", "properties": { "CODI_ACCÉS": 42311, "NOM_ACCÉS": "Argenteria", "NOM_ESTACIÓ": "423 JAUME I", "Ascensor": true, "Escales": false, "Peu Pla": false, "GEOMETRY": "POINT (2.1792694422401935 41.383817813127976)", "Type": "Metro Access", "Evaluation": "Elevator" }, "geometry": { "type": "Point", "coordinates": [ 2.179269442240193, 41.383817813127976 ] } },
{ "type": "Feature", "properties": { "CODI_ACCÉS": 42401, "NOM_ACCÉS": "Plaça Urquinaona", "NOM_ESTACIÓ": "424 URQUINAONA (L4)", "Ascensor": false, "Escales": true, "Peu Pla": false, "GEOMETRY": "POINT (2.172765383459695 41.388811796430126)", "Type": "Metro Access", "Evaluation": "Stairs only" }, "geometry": { "type": "Point", "coordinates": [ 2.172765383459695, 41.388811796430126 ] } },
{ "type": "Feature", "properties": { "CODI_ACCÉS": 42501, "NOM_ACCÉS": "Passeig de Gràcia / Gran Via", "NOM_ESTACIÓ": "425 PASSEIG DE GRÀCIA (L4)", "Ascensor": false, "Escales": true, "Peu Pla": false, "GEOMETRY": "POINT (2.167630730892553 41.389766857787336)", "Type": "Metro Access", "Evaluation": "Stairs only" }, "geometry": { "type": "Point", "coordinates": [ 2.167630730892553, 41.389766857787336 ] } },
{ "type": "Feature", "properties": { "CODI_ACCÉS": 42601, "NOM_ACCÉS": "Consell de Cent", "NOM_ESTACIÓ": "426 GIRONA", "Ascensor": true, "Escales": true, "Peu Pla": false, "GEOMETRY": "POINT (2.170834416676432 41.394835322546584)", "Type": "Metro Access", "Evaluation": "Elevator" }, "geometry": { "type": "Point", "coordinates": [ 2.170834416676432, 41.394835322546584 ] } },
{ "type": "Feature", "properties": { "CODI_ACCÉS": 42801, "NOM_ACCÉS": "Escorial", "NOM_ESTACIÓ": "428 JOANIC", "Ascensor": true, "Escales": false, "Peu Pla": false, "GEOMETRY": "POINT (2.1628982674135058 41.406025461731545)", "Type": "Metro Access", "Evaluation": "Elevator" }, "geometry": { "type": "Point", "coordinates": [ 2.162898267413506, 41.406025461731545 ] } },
{ "type": "Feature", "properties": { "CODI_ACCÉS": 42901, "NOM_ACCÉS": "Ronda Guinardó", "NOM_ESTACIÓ": "429 ALFONS X", "Ascensor": true, "Escales": false, "Peu Pla": false, "GEOMETRY": "POINT (2.1665122167913315 41.412396309165906)", "Type": "Metro Access", "Evaluation": "Elevator" }, "geometry": { "type": "Point", "coordinates": [ 2.166512216791332, 41.412396309165906 ] } },
{ "type": "Feature", "properties": { "CODI_ACCÉS": 43001, "NOM_ACCÉS": "Sant Quintí", "NOM_ESTACIÓ": "430 GUINARDÓ/HOSPITAL ST PAU", "Ascensor": true, "Escales": true, "Peu Pla": false, "GEOMETRY": "POINT (2.17448556195168 41.41602013578463)", "Type": "Metro Access", "Evaluation": "Elevator" }, "geometry": { "type": "Point", "coordinates": [ 2.17448556195168, 41.416020135784628 ] } },
{ "type": "Feature", "properties": { "CODI_ACCÉS": 43012, "NOM_ACCÉS": "Hospital de Sant Pau", "NOM_ESTACIÓ": "430 GUINARDÓ | HOSPITAL DE SANT PAU", "Ascensor": false, "Escales": false, "Peu Pla": true, "GEOMETRY": "POINT (2.174417599864814 41.415769240572445)", "Type": "Metro Access", "Evaluation": "Step-free access" }, "geometry": { "type": "Point", "coordinates": [ 2.174417599864814, 41.415769240572445 ] } },
{ "type": "Feature", "properties": { "CODI_ACCÉS": 43102, "NOM_ACCÉS": "Ronda Guinardó - costat Muntanya", "NOM_ESTACIÓ": "431 MARAGALL (L4)", "Ascensor": true, "Escales": false, "Peu Pla": false, "GEOMETRY": "POINT (2.177172904274533 41.4225504338294)", "Type": "Metro Access", "Evaluation": "Elevator" }, "geometry": { "type": "Point", "coordinates": [ 2.177172904274533, 41.4225504338294 ] } },
{ "type": "Feature", "properties": { "CODI_ACCÉS": 43201, "NOM_ACCÉS": "Passeig Verdum / Llucmajor", "NOM_ESTACIÓ": "432 LLUCMAJOR", "Ascensor": true, "Escales": false, "Peu Pla": false, "GEOMETRY": "POINT (2.173895569321168 41.437616701245766)", "Type": "Metro Access", "Evaluation": "Elevator" }, "geometry": { "type": "Point", "coordinates": [ 2.173895569321168, 41.437616701245766 ] } },
{ "type": "Feature", "properties": { "CODI_ACCÉS": 43301, "NOM_ACCÉS": "Via Júlia / Joaquim Valls", "NOM_ESTACIÓ": "433 VIA JÚLIA", "Ascensor": true, "Escales": false, "Peu Pla": false, "GEOMETRY": "POINT (2.1788971202088763 41.44425262949602)", "Type": "Metro Access", "Evaluation": "Elevator" }, "geometry": { "type": "Point", "coordinates": [ 2.178897120208876, 41.44425262949602 ] } },
{ "type": "Feature", "properties": { "CODI_ACCÉS": 43401, "NOM_ACCÉS": "Pedrosa", "NOM_ESTACIÓ": "339 TRINITAT NOVA (L3)", "Ascensor": false, "Escales": false, "Peu Pla": true, "GEOMETRY": "POINT (2.1832876951287985 41.44920925074595)", "Type": "Metro Access", "Evaluation": "Step-free access" }, "geometry": { "type": "Point", "coordinates": [ 2.183287695128799, 41.449209250745952 ] } },
{ "type": "Feature", "properties": { "CODI_ACCÉS": 51611, "NOM_ACCÉS": "Carrer de Sants / Arizala", "NOM_ESTACIÓ": "516 BADAL", "Ascensor": true, "Escales": false, "Peu Pla": false, "GEOMETRY": "POINT (2.1260317244158746 41.37567233929521)", "Type": "Metro Access", "Evaluation": "Elevator" }, "geometry": { "type": "Point", "coordinates": [ 2.126031724415875, 41.375672339295207 ] } },
{ "type": "Feature", "properties": { "CODI_ACCÉS": 51801, "NOM_ACCÉS": "Estació RENFE / Pl. Joan Peiró", "NOM_ESTACIÓ": "319 SANTS - ESTACIÓ (L3 i L5)", "Ascensor": false, "Escales": true, "Peu Pla": false, "GEOMETRY": "POINT (2.139573249095389 41.379510456536)", "Type": "Metro Access", "Evaluation": "Stairs only" }, "geometry": { "type": "Point", "coordinates": [ 2.139573249095389, 41.379510456536003 ] } },
{ "type": "Feature", "properties": { "CODI_ACCÉS": 51802, "NOM_ACCÉS": "Estació RENFE / Pl. Països Catalans", "NOM_ESTACIÓ": "319 SANTS - ESTACIÓ (L3 i L5)", "Ascensor": true, "Escales": true, "Peu Pla": false, "GEOMETRY": "POINT (2.139922982410696 41.37972017015965)", "Type": "Metro Access", "Evaluation": "Elevator" }, "geometry": { "type": "Point", "coordinates": [ 2.139922982410696, 41.379720170159651 ] } },
{ "type": "Feature", "properties": { "CODI_ACCÉS": 51901, "NOM_ACCÉS": "Rocafort", "NOM_ESTACIÓ": "519 ENTENÇA", "Ascensor": true, "Escales": false, "Peu Pla": false, "GEOMETRY": "POINT (2.146110635069211 41.38496374773946)", "Type": "Metro Access", "Evaluation": "Elevator" }, "geometry": { "type": "Point", "coordinates": [ 2.146110635069211, 41.384963747739462 ] } },
{ "type": "Feature", "properties": { "CODI_ACCÉS": 52012, "NOM_ACCÉS": "Rosselló", "NOM_ESTACIÓ": "520 HOSPITAL CLINIC", "Ascensor": true, "Escales": false, "Peu Pla": false, "GEOMETRY": "POINT (2.150619480791316 41.388395350299575)", "Type": "Metro Access", "Evaluation": "Elevator" }, "geometry": { "type": "Point", "coordinates": [ 2.150619480791316, 41.388395350299575 ] } },
{ "type": "Feature", "properties": { "CODI_ACCÉS": 52101, "NOM_ACCÉS": "Rambla Catalunya", "NOM_ESTACIÓ": "521 DIAGONAL (L5)", "Ascensor": true, "Escales": true, "Peu Pla": false, "GEOMETRY": "POINT (2.1590970249630956 41.39442417240258)", "Type": "Metro Access", "Evaluation": "Elevator" }, "geometry": { "type": "Point", "coordinates": [ 2.159097024963096, 41.39442417240258 ] } },
{ "type": "Feature", "properties": { "CODI_ACCÉS": 52111, "NOM_ACCÉS": "Rosselló / FGC", "NOM_ESTACIÓ": "521 DIAGONAL (L5)", "Ascensor": false, "Escales": true, "Peu Pla": false, "GEOMETRY": "POINT (2.158860897930238 41.394245918678564)", "Type": "Metro Access", "Evaluation": "Stairs only" }, "geometry": { "type": "Point", "coordinates": [ 2.158860897930238, 41.394245918678564 ] } },
{ "type": "Feature", "properties": { "CODI_ACCÉS": 52301, "NOM_ACCÉS": "Provença / Avinguda Gaudí", "NOM_ESTACIÓ": "523 SAGRADA FAMÍLIA (L5)", "Ascensor": true, "Escales": false, "Peu Pla": false, "GEOMETRY": "POINT (2.174221777749295 41.40449738730942)", "Type": "Metro Access", "Evaluation": "Elevator" }, "geometry": { "type": "Point", "coordinates": [ 2.174221777749295, 41.404497387309419 ] } },
{ "type": "Feature", "properties": { "CODI_ACCÉS": 52401, "NOM_ACCÉS": "Dos de Maig", "NOM_ESTACIÓ": "524 SANT PAU / 2 DE MAIG", "Ascensor": true, "Escales": false, "Peu Pla": false, "GEOMETRY": "POINT (2.1763653799906564 41.41114080447703)", "Type": "Metro Access", "Evaluation": "Elevator" }, "geometry": { "type": "Point", "coordinates": [ 2.176365379990656, 41.411140804477029 ] } },
{ "type": "Feature", "properties": { "CODI_ACCÉS": 52501, "NOM_ACCÉS": "Passeig Maragall", "NOM_ESTACIÓ": "525 CAMP DE L'ARPA", "Ascensor": true, "Escales": false, "Peu Pla": false, "GEOMETRY": "POINT (2.1809551946540227 41.41475538864973)", "Type": "Metro Access", "Evaluation": "Elevator" }, "geometry": { "type": "Point", "coordinates": [ 2.180955194654023, 41.414755388649731 ] } },
{ "type": "Feature", "properties": { "CODI_ACCÉS": 52611, "NOM_ACCÉS": "Felip II", "NOM_ESTACIÓ": "526 LA SAGRERA (L5)", "Ascensor": true, "Escales": true, "Peu Pla": false, "GEOMETRY": "POINT (2.1865610859171887 41.42041075156976)", "Type": "Metro Access", "Evaluation": "Elevator" }, "geometry": { "type": "Point", "coordinates": [ 2.186561085917189, 41.420410751569761 ] } },
{ "type": "Feature", "properties": { "CODI_ACCÉS": 52701, "NOM_ACCÉS": "Matanzas", "NOM_ESTACIÓ": "527 CONGRÉS", "Ascensor": true, "Escales": false, "Peu Pla": false, "GEOMETRY": "POINT (2.182114350361228 41.42342321848205)", "Type": "Metro Access", "Evaluation": "Elevator" }, "geometry": { "type": "Point", "coordinates": [ 2.182114350361228, 41.42342321848205 ] } },
{ "type": "Feature", "properties": { "CODI_ACCÉS": 52801, "NOM_ACCÉS": "Ramon Albó", "NOM_ESTACIÓ": "528 MARAGALL (L5)", "Ascensor": true, "Escales": true, "Peu Pla": false, "GEOMETRY": "POINT (2.177164452404854 41.4244727384488)", "Type": "Metro Access", "Evaluation": "Elevator" }, "geometry": { "type": "Point", "coordinates": [ 2.177164452404854, 41.424472738448799 ] } },
{ "type": "Feature", "properties": { "CODI_ACCÉS": 52903, "NOM_ACCÉS": "Virrei Amat (muntanya)", "NOM_ESTACIÓ": "529 VIRREI AMAT", "Ascensor": true, "Escales": true, "Peu Pla": false, "GEOMETRY": "POINT (2.174763343233299 41.43023702077505)", "Type": "Metro Access", "Evaluation": "Elevator" }, "geometry": { "type": "Point", "coordinates": [ 2.174763343233299, 41.430237020775053 ] } },
{ "type": "Feature", "properties": { "CODI_ACCÉS": 53011, "NOM_ACCÉS": "Passeig de les Palmeres", "NOM_ESTACIÓ": "530 VILAPICINA", "Ascensor": true, "Escales": false, "Peu Pla": false, "GEOMETRY": "POINT (2.168476563431491 41.430326179812745)", "Type": "Metro Access", "Evaluation": "Elevator" }, "geometry": { "type": "Point", "coordinates": [ 2.168476563431491, 41.430326179812745 ] } },
{ "type": "Feature", "properties": { "CODI_ACCÉS": 53012, "NOM_ACCÉS": "Teide", "NOM_ESTACIÓ": "530 VILAPICINA", "Ascensor": true, "Escales": false, "Peu Pla": false, "GEOMETRY": "POINT (2.168485040225751 41.43055214802522)", "Type": "Metro Access", "Evaluation": "Elevator" }, "geometry": { "type": "Point", "coordinates": [ 2.168485040225751, 41.430552148025221 ] } },
{ "type": "Feature", "properties": { "CODI_ACCÉS": 53111, "NOM_ACCÉS": "Lisboa", "NOM_ESTACIÓ": "531 HORTA", "Ascensor": true, "Escales": true, "Peu Pla": false, "GEOMETRY": "POINT (2.1588149190327615 41.42969342672421)", "Type": "Metro Access", "Evaluation": "Elevator" }, "geometry": { "type": "Point", "coordinates": [ 2.158814919032761, 41.429693426724207 ] } },
{ "type": "Feature", "properties": { "CODI_ACCÉS": 53201, "NOM_ACCÉS": "Plaça Pastrana", "NOM_ESTACIÓ": "532 EL CARMEL", "Ascensor": false, "Escales": true, "Peu Pla": false, "GEOMETRY": "POINT (2.1560349930542952 41.425538975362834)", "Type": "Metro Access", "Evaluation": "Stairs only" }, "geometry": { "type": "Point", "coordinates": [ 2.156034993054295, 41.425538975362834 ] } },
{ "type": "Feature", "properties": { "CODI_ACCÉS": 53211, "NOM_ACCÉS": "Llobregós", "NOM_ESTACIÓ": "532 EL CARMEL", "Ascensor": true, "Escales": true, "Peu Pla": false, "GEOMETRY": "POINT (2.154370583017562 41.42328573366592)", "Type": "Metro Access", "Evaluation": "Elevator" }, "geometry": { "type": "Point", "coordinates": [ 2.154370583017562, 41.423285733665921 ] } },
{ "type": "Feature", "properties": { "CODI_ACCÉS": 53212, "NOM_ACCÉS": "Mercat", "NOM_ESTACIÓ": "532 EL CARMEL", "Ascensor": true, "Escales": true, "Peu Pla": false, "GEOMETRY": "POINT (2.1550153213204495 41.42364530715849)", "Type": "Metro Access", "Evaluation": "Elevator" }, "geometry": { "type": "Point", "coordinates": [ 2.155015321320449, 41.423645307158488 ] } },
{ "type": "Feature", "properties": { "CODI_ACCÉS": 53301, "NOM_ACCÉS": "Passeig Mare de Déu del Coll", "NOM_ESTACIÓ": "533 EL COLL / LA TEIXONERA", "Ascensor": true, "Escales": true, "Peu Pla": false, "GEOMETRY": "POINT (2.15030270678913 41.4209989290359)", "Type": "Metro Access", "Evaluation": "Elevator" }, "geometry": { "type": "Point", "coordinates": [ 2.15030270678913, 41.420998929035903 ] } },
{ "type": "Feature", "properties": { "CODI_ACCÉS": 53302, "NOM_ACCÉS": "Beat Almató", "NOM_ESTACIÓ": "533 EL COLL / LA TEIXONERA", "Ascensor": false, "Escales": false, "Peu Pla": true, "GEOMETRY": "POINT (2.149432679446425 41.419761733971406)", "Type": "Metro Access", "Evaluation": "Step-free access" }, "geometry": { "type": "Point", "coordinates": [ 2.149432679446425, 41.419761733971406 ] } },
{ "type": "Feature", "properties": { "CODI_ACCÉS": 53311, "NOM_ACCÉS": "Arenys", "NOM_ESTACIÓ": "533 EL COLL / LA TEIXONERA", "Ascensor": true, "Escales": false, "Peu Pla": true, "GEOMETRY": "POINT (2.1479961471943976 41.42328766815374)", "Type": "Metro Access", "Evaluation": "Elevator" }, "geometry": { "type": "Point", "coordinates": [ 2.147996147194398, 41.423287668153741 ] } },
{ "type": "Feature", "properties": { "CODI_ACCÉS": 53401, "NOM_ACCÉS": "Residència Sanitària", "NOM_ESTACIÓ": "534 VALL D'HEBRON (L5)", "Ascensor": true, "Escales": true, "Peu Pla": false, "GEOMETRY": "POINT (2.142156703324202 41.425372374065084)", "Type": "Metro Access", "Evaluation": "Elevator" }, "geometry": { "type": "Point", "coordinates": [ 2.142156703324202, 41.425372374065084 ] } },
{ "type": "Feature", "properties": { "CODI_ACCÉS": 53402, "NOM_ACCÉS": "Avinguda Jordà", "NOM_ESTACIÓ": "534 VALL D'HEBRON (L5)", "Ascensor": false, "Escales": true, "Peu Pla": false, "GEOMETRY": "POINT (2.141713655986979 41.42467469635589)", "Type": "Metro Access", "Evaluation": "Stairs only" }, "geometry": { "type": "Point", "coordinates": [ 2.141713655986979, 41.424674696355893 ] } },
{ "type": "Feature", "properties": { "CODI_ACCÉS": 55501, "NOM_ACCÉS": "Avinguda de Xile", "NOM_ESTACIÓ": "555 ERNEST LLUCH", "Ascensor": true, "Escales": false, "Peu Pla": false, "GEOMETRY": "POINT (2.110604178786103 41.376174072254145)", "Type": "Metro Access", "Evaluation": "Elevator" }, "geometry": { "type": "Point", "coordinates": [ 2.110604178786103, 41.376174072254145 ] } },
{ "type": "Feature", "properties": { "CODI_ACCÉS": 90701, "NOM_ACCÉS": "Doctor Soler i Torrens", "NOM_ESTACIÓ": "907 EL PRAT ESTACIÓ", "Ascensor": false, "Escales": false, "Peu Pla": true, "GEOMETRY": "POINT (2.089932544277716 41.33126725950448)", "Type": "Metro Access", "Evaluation": "Step-free access" }, "geometry": { "type": "Point", "coordinates": [ 2.089932544277716, 41.331267259504479 ] } },
{ "type": "Feature", "properties": { "CODI_ACCÉS": 91101, "NOM_ACCÉS": "Av. Parc Logístic / C. Número Un", "NOM_ESTACIÓ": "911 PARC LOGÍSTIC", "Ascensor": false, "Escales": true, "Peu Pla": false, "GEOMETRY": "POINT (2.127133907927153 41.34135302889588)", "Type": "Metro Access", "Evaluation": "Stairs only" }, "geometry": { "type": "Point", "coordinates": [ 2.127133907927153, 41.341353028895881 ] } },
{ "type": "Feature", "properties": { "CODI_ACCÉS": 91102, "NOM_ACCÉS": "Av. Parc Logístic / C. Número Vint-i-cinc", "NOM_ESTACIÓ": "911 PARC LOGÍSTIC", "Ascensor": false, "Escales": true, "Peu Pla": false, "GEOMETRY": "POINT (2.1281666270287083 41.341696680484176)", "Type": "Metro Access", "Evaluation": "Stairs only" }, "geometry": { "type": "Point", "coordinates": [ 2.128166627028708, 41.341696680484176 ] } },
{ "type": "Feature", "properties": { "CODI_ACCÉS": 91201, "NOM_ACCÉS": "Botànica + Accés NORD | EST", "NOM_ESTACIÓ": "902 FIRA", "Ascensor": false, "Escales": true, "Peu Pla": false, "GEOMETRY": "POINT (2.1308184384231095 41.3520791789687)", "Type": "Metro Access", "Evaluation": "Stairs only" }, "geometry": { "type": "Point", "coordinates": [ 2.130818438423109, 41.352079178968701 ] } },
{ "type": "Feature", "properties": { "CODI_ACCÉS": 91601, "NOM_ACCÉS": "Av. Sant Ramon", "NOM_ESTACIÓ": "916 COLLBLANC", "Ascensor": false, "Escales": true, "Peu Pla": false, "GEOMETRY": "POINT (2.1184479522727964 41.37586944626433)", "Type": "Metro Access", "Evaluation": "Stairs only" }, "geometry": { "type": "Point", "coordinates": [ 2.118447952272796, 41.375869446264332 ] } },
{ "type": "Feature", "properties": { "CODI_ACCÉS": 91801, "NOM_ACCÉS": "Dr. Marañón", "NOM_ESTACIÓ": "918 ZONA UNIVERSITÀRIA", "Ascensor": false, "Escales": true, "Peu Pla": false, "GEOMETRY": "POINT (2.111956267171571 41.38403328719203)", "Type": "Metro Access", "Evaluation": "Stairs only" }, "geometry": { "type": "Point", "coordinates": [ 2.111956267171571, 41.384033287192032 ] } },
{ "type": "Feature", "properties": { "CODI_ACCÉS": 93301, "NOM_ACCÉS": "Sant Adrià", "NOM_ESTACIÓ": "933 BON PASTOR", "Ascensor": false, "Escales": true, "Peu Pla": false, "GEOMETRY": "POINT (2.2047315457246794 41.4360531670311)", "Type": "Metro Access", "Evaluation": "Stairs only" }, "geometry": { "type": "Point", "coordinates": [ 2.204731545724679, 41.436053167031098 ] } },
{ "type": "Feature", "properties": { "CODI_ACCÉS": 95101, "NOM_ACCÉS": "Carrer A / Carrer 5", "NOM_ESTACIÓ": "951 ZAL | RIU VELL", "Ascensor": false, "Escales": false, "Peu Pla": true, "GEOMETRY": "POINT (2.133128278747189 41.32382923976563)", "Type": "Metro Access", "Evaluation": "Step-free access" }, "geometry": { "type": "Point", "coordinates": [ 2.133128278747189, 41.323829239765629 ] } },
{ "type": "Feature", "properties": { "CODI_ACCÉS": 95102, "NOM_ACCÉS": "Riu Llobregat", "NOM_ESTACIÓ": "951 ZAL | RIU VELL", "Ascensor": false, "Escales": false, "Peu Pla": true, "GEOMETRY": "POINT (2.132990553917449 41.32360655294026)", "Type": "Metro Access", "Evaluation": "Step-free access" }, "geometry": { "type": "Point", "coordinates": [ 2.132990553917449, 41.323606552940262 ] } },
{ "type": "Feature", "properties": { "CODI_ACCÉS": 95103, "NOM_ACCÉS": "ZAL", "NOM_ESTACIÓ": "951 ZAL | RIU VELL", "Ascensor": false, "Escales": false, "Peu Pla": true, "GEOMETRY": "POINT (2.133069173990653 41.32357794203119)", "Type": "Metro Access", "Evaluation": "Step-free access" }, "geometry": { "type": "Point", "coordinates": [ 2.133069173990653, 41.323577942031193 ] } },
{ "type": "Feature", "properties": { "CODI_ACCÉS": 95201, "NOM_ACCÉS": "Ecoparc", "NOM_ESTACIÓ": "952 ECOPARC", "Ascensor": false, "Escales": false, "Peu Pla": true, "GEOMETRY": "POINT (2.13710059403922 41.33028804659413)", "Type": "Metro Access", "Evaluation": "Step-free access" }, "geometry": { "type": "Point", "coordinates": [ 2.13710059403922, 41.330288046594127 ] } },
{ "type": "Feature", "properties": { "CODI_ACCÉS": 95202, "NOM_ACCÉS": "Carrer A / Carrer 4", "NOM_ESTACIÓ": "952 ECOPARC", "Ascensor": false, "Escales": false, "Peu Pla": true, "GEOMETRY": "POINT (2.1369594602071227 41.330057232323206)", "Type": "Metro Access", "Evaluation": "Step-free access" }, "geometry": { "type": "Point", "coordinates": [ 2.136959460207123, 41.330057232323206 ] } },
{ "type": "Feature", "properties": { "CODI_ACCÉS": 95203, "NOM_ACCÉS": "Carrer A (costat mar)", "NOM_ESTACIÓ": "952 ECOPARC", "Ascensor": false, "Escales": false, "Peu Pla": true, "GEOMETRY": "POINT (2.137043313198081 41.33002736085884)", "Type": "Metro Access", "Evaluation": "Step-free access" }, "geometry": { "type": "Point", "coordinates": [ 2.137043313198081, 41.330027360858843 ] } },
{ "type": "Feature", "properties": { "CODI_ACCÉS": 95301, "NOM_ACCÉS": "Carrer A / Carrer 25", "NOM_ESTACIÓ": "953 PORT COMERCIAL | LA FACTORIA", "Ascensor": false, "Escales": false, "Peu Pla": true, "GEOMETRY": "POINT (2.14068453363928 41.336111165843306)", "Type": "Metro Access", "Evaluation": "Step-free access" }, "geometry": { "type": "Point", "coordinates": [ 2.14068453363928, 41.336111165843306 ] } },
{ "type": "Feature", "properties": { "CODI_ACCÉS": 95302, "NOM_ACCÉS": "Carrer A / Carrer 27", "NOM_ESTACIÓ": "953 PORT COMERCIAL | LA FACTORIA", "Ascensor": false, "Escales": false, "Peu Pla": true, "GEOMETRY": "POINT (2.140546792545736 41.335884930290916)", "Type": "Metro Access", "Evaluation": "Step-free access" }, "geometry": { "type": "Point", "coordinates": [ 2.140546792545736, 41.335884930290916 ] } },
{ "type": "Feature", "properties": { "CODI_ACCÉS": 95303, "NOM_ACCÉS": "Carrer A (costat mar)", "NOM_ESTACIÓ": "953 PORT COMERCIAL | LA FACTORIA", "Ascensor": false, "Escales": false, "Peu Pla": true, "GEOMETRY": "POINT (2.14062873841243 41.335856942627636)", "Type": "Metro Access", "Evaluation": "Step-free access" }, "geometry": { "type": "Point", "coordinates": [ 2.14062873841243, 41.335856942627636 ] } },
{ "type": "Feature", "properties": { "CODI_ACCÉS": 95401, "NOM_ACCÉS": "Carrer A / Carrer 1", "NOM_ESTACIÓ": "954 ZONA FRANCA", "Ascensor": false, "Escales": false, "Peu Pla": true, "GEOMETRY": "POINT (2.144978381649569 41.34311222877129)", "Type": "Metro Access", "Evaluation": "Step-free access" }, "geometry": { "type": "Point", "coordinates": [ 2.144978381649569, 41.34311222877129 ] } },
{ "type": "Feature", "properties": { "CODI_ACCÉS": 95402, "NOM_ACCÉS": "Carrer A / Carrer 2", "NOM_ESTACIÓ": "954 ZONA FRANCA", "Ascensor": false, "Escales": false, "Peu Pla": true, "GEOMETRY": "POINT (2.144832614303175 41.342872346526015)", "Type": "Metro Access", "Evaluation": "Step-free access" }, "geometry": { "type": "Point", "coordinates": [ 2.144832614303175, 41.342872346526015 ] } },
{ "type": "Feature", "properties": { "CODI_ACCÉS": 95403, "NOM_ACCÉS": "Carrer A (costat mar)", "NOM_ESTACIÓ": "954 ZONA FRANCA", "Ascensor": false, "Escales": false, "Peu Pla": true, "GEOMETRY": "POINT (2.1449341946959053 41.34284331262662)", "Type": "Metro Access", "Evaluation": "Step-free access" }, "geometry": { "type": "Point", "coordinates": [ 2.144934194695905, 41.34284331262662 ] } },
{ "type": "Feature", "properties": { "CODI_ACCÉS": 95601, "NOM_ACCÉS": "Fira Gran Via (Pavellons 6·7·8)", "NOM_ESTACIÓ": "956 FOC", "Ascensor": false, "Escales": true, "Peu Pla": false, "GEOMETRY": "POINT (2.142079174100966 41.355675202879624)", "Type": "Metro Access", "Evaluation": "Stairs only" }, "geometry": { "type": "Point", "coordinates": [ 2.142079174100966, 41.355675202879624 ] } },
{ "type": "Feature", "properties": { "CODI_ACCÉS": 95602, "NOM_ACCÉS": "Foc (costat Montjuïc)", "NOM_ESTACIÓ": "956 FOC", "Ascensor": false, "Escales": true, "Peu Pla": false, "GEOMETRY": "POINT (2.142101527063926 41.356188341052246)", "Type": "Metro Access", "Evaluation": "Stairs only" }, "geometry": { "type": "Point", "coordinates": [ 2.142101527063926, 41.356188341052246 ] } },
{ "type": "Feature", "properties": { "CODI_ACCÉS": 95701, "NOM_ACCÉS": "Jardins dels Drets Humans", "NOM_ESTACIÓ": "957 FONERIA", "Ascensor": false, "Escales": true, "Peu Pla": false, "GEOMETRY": "POINT (2.13834767359751 41.360646053672376)", "Type": "Metro Access", "Evaluation": "Stairs only" }, "geometry": { "type": "Point", "coordinates": [ 2.13834767359751, 41.360646053672376 ] } },
{ "type": "Feature", "properties": { "CODI_ACCÉS": 95702, "NOM_ACCÉS": "Mercat de la Marina", "NOM_ESTACIÓ": "957 FONERIA", "Ascensor": false, "Escales": true, "Peu Pla": false, "GEOMETRY": "POINT (2.138759587768101 41.36082342196549)", "Type": "Metro Access", "Evaluation": "Stairs only" }, "geometry": { "type": "Point", "coordinates": [ 2.138759587768101, 41.360823421965492 ] } },
{ "type": "Feature", "properties": { "CODI_ACCÉS": 113701, "NOM_ACCÉS": "Aiguablava", "NOM_ESTACIÓ": "1137 CASA DE L'AIGUA", "Ascensor": false, "Escales": false, "Peu Pla": true, "GEOMETRY": "POINT (2.1851754580532616 41.451261449770584)", "Type": "Metro Access", "Evaluation": "Step-free access" }, "geometry": { "type": "Point", "coordinates": [ 2.185175458053262, 41.451261449770584 ] } },
{ "type": "Feature", "properties": { "CODI_ACCÉS": 113801, "NOM_ACCÉS": "Avinguda Escolapi Càncer", "NOM_ESTACIÓ": "1138 TORRE BARÓ I VALLBONA", "Ascensor": true, "Escales": false, "Peu Pla": true, "GEOMETRY": "POINT (2.1807068322278242 41.45929572838615)", "Type": "Metro Access", "Evaluation": "Elevator" }, "geometry": { "type": "Point", "coordinates": [ 2.180706832227824, 41.459295728386152 ] } },
{ "type": "Feature", "properties": { "CODI_ACCÉS": 113811, "NOM_ACCÉS": "Sant Feliu de Codines", "NOM_ESTACIÓ": "1138 TORRE BARÓ I VALLBONA", "Ascensor": true, "Escales": false, "Peu Pla": false, "GEOMETRY": "POINT (2.1792574126156485 41.45930587802702)", "Type": "Metro Access", "Evaluation": "Elevator" }, "geometry": { "type": "Point", "coordinates": [ 2.179257412615649, 41.459305878027017 ] } },
{ "type": "Feature", "properties": { "CODI_ACCÉS": 113901, "NOM_ACCÉS": "Avinguda Rasos de Peguera", "NOM_ESTACIÓ": "1139 CIUTAT MERIDIANA", "Ascensor": true, "Escales": true, "Peu Pla": false, "GEOMETRY": "POINT (2.1746970655892848 41.46089542038299)", "Type": "Metro Access", "Evaluation": "Elevator" }, "geometry": { "type": "Point", "coordinates": [ 2.174697065589285, 41.46089542038299 ] } },
{ "type": "Feature", "properties": { "CODI_ACCÉS": 990201, "NOM_ACCÉS": "Avinguda Miramar", "NOM_ESTACIÓ": "9902 PARC DE MONTJUÏC (FUNICULAR)", "Ascensor": false, "Escales": false, "Peu Pla": true, "GEOMETRY": "POINT (2.163094465706356 41.36884517746519)", "Type": "Metro Access", "Evaluation": "Step-free access" }, "geometry": { "type": "Point", "coordinates": [ 2.163094465706356, 41.36884517746519 ] } }
]
}
